IRIDIUM 39              
1 25042U 97069D   25137.19556868  .00000789  00000+0  20148-3 0  9991
2 25042  86.3947 224.4080 0019575  55.5147 304.7903 14.49186944444734
IRIDIUM 38              
1 25043U 97069E   25137.55367594  .00000558  00000+0  17780-3 0  9990
2 25043  86.3966 246.0361 0002592 141.8787 218.2595 14.38093235441818
IRIDIUM 42              
1 25077U 97077A   25136.75595020  .00000397  00000+0  12916-3 0  9991
2 25077  86.3961 252.5045 0001874 114.4883 245.6510 14.36327950436688
IRIDIUM 44              
1 25078U 97077B   25136.79521706  .00000434  00000+0  13097-3 0  9999
2 25078  86.3981 234.4920 0003926 111.7883 248.3734 14.40217971439184
IRIDIUM 45              
1 25104U 97082A   25137.21718498  .00026193  00000+0  95355-3 0  9996
2 25104  86.3592  62.9168 0122786  87.6947 273.8349 15.21146179447587
IRIDIUM 24              
1 25105U 97082B   25136.87805472  .00000553  00000+0  16229-3 0  9992
2 25105  86.3883  93.5808 0011408 170.0273 190.1156 14.42068722438709
IRIDIUM 51              
1 25262U 98018A   25137.20735082  .00050554  00000+0  11810-2 0  9999
2 25262  86.3846  71.1476 0090911  12.0562 348.2835 15.37671518442485
IRIDIUM 57              
1 25273U 98019B   25137.50941733  .00000418  00000+0  13756-3 0  9993
2 25273  86.3972 158.1131 0002297  92.7487 267.3972 14.35874110420593
